[{"OBJECT_NAME":"GOES 18","OBJECT_ID":"2022-021A","EPOCH":"2026-03-15T00:17:38.484672","MEAN_MOTION":1.00272979,"ECCENTRICITY":8.267e-5,"INCLINATION":0.0356,"RA_OF_ASC_NODE":39.05,"ARG_OF_PERICENTER":24.7142,"MEAN_ANOMALY":336.2554,"EPHEMERIS_TYPE":0,"CLASSIFICATION_TYPE":"U","NORAD_CAT_ID":51850,"ELEMENT_SET_NO":999,"REV_AT_EPOCH":564,"BSTAR":0,"MEAN_MOTION_DOT":9.6e-7,"MEAN_MOTION_DDOT":0},{"OBJECT_NAME":"GOES 19","OBJECT_ID":"2024-119A","EPOCH":"2026-03-15T06:24:02.132640","MEAN_MOTION":1.00271252,"ECCENTRICITY":0.00010523,"INCLINATION":0.0272,"RA_OF_ASC_NODE":311.4581,"ARG_OF_PERICENTER":89.9025,"MEAN_ANOMALY":152.3273,"EPHEMERIS_TYPE":0,"CLASSIFICATION_TYPE":"U","NORAD_CAT_ID":60133,"ELEMENT_SET_NO":999,"REV_AT_EPOCH":602,"BSTAR":0,"MEAN_MOTION_DOT":-2.49e-6,"MEAN_MOTION_DDOT":0}]
