GOES 18                 
1 51850U 22021A   26074.01225098  .00000096  00000+0  00000+0 0  9995
2 51850   0.0356  39.0500 0000826  24.7142 336.2554  1.00272979  5648
GOES 19                 
1 60133U 24119A   26074.26669135 -.00000249  00000+0  00000+0 0  9991
2 60133   0.0272 311.4581 0001052  89.9025 152.3273  1.00271252  6021
